{
  "norad_id": 54158,
  "name": "STARLINK-5297",
  "history": [
    {
      "epoch": "2026-04-12T14:14:19.440384Z",
      "apogee_km": 540.7345932995077,
      "perigee_km": 538.7549722485501,
      "latitude_deg": 7.480209941625788e-05,
      "longitude_deg": 167.67606592886875,
      "height_km": 540.6442038001746,
      "semi_major_axis_km": 6917.881782774029,
      "eccentricity": 0.00014308,
      "inclination_deg": 53.2161,
      "raan_deg": 222.0532,
      "arg_perigee_deg": 90.2294,
      "mean_anomaly_deg": 269.8863,
      "mean_motion_rev_day": 15.08839544
    },
    {
      "epoch": "2026-04-14T13:55:53.514336Z",
      "apogee_km": 540.7142279713598,
      "perigee_km": 538.7675371352097,
      "latitude_deg": 5.2344688185584635e-05,
      "longitude_deg": 161.4038020590555,
      "height_km": 540.6362402484034,
      "semi_major_axis_km": 6917.8778825532845,
      "eccentricity": 0.0001407,
      "inclination_deg": 53.2165,
      "raan_deg": 213.1316,
      "arg_perigee_deg": 89.9894,
      "mean_anomaly_deg": 270.126,
      "mean_motion_rev_day": 15.0884082
    },
    {
      "epoch": "2026-04-15T13:46:40.344384Z",
      "apogee_km": 540.6305469238841,
      "perigee_km": 538.8360513682846,
      "latitude_deg": -3.612954904458225e-05,
      "longitude_deg": 158.26917840276747,
      "height_km": 540.5737982876268,
      "semi_major_axis_km": 6917.870299146084,
      "eccentricity": 0.0001297,
      "inclination_deg": 53.2163,
      "raan_deg": 208.6715,
      "arg_perigee_deg": 86.4736,
      "mean_anomaly_deg": 273.6404,
      "mean_motion_rev_day": 15.08843301
    },
    {
      "epoch": "2026-04-16T13:37:27.992640Z",
      "apogee_km": 540.5452905436241,
      "perigee_km": 538.9693942124304,
      "latitude_deg": -1.9377497319086383e-06,
      "longitude_deg": 155.13232756445547,
      "height_km": 540.5780172322001,
      "semi_major_axis_km": 6917.894342378027,
      "eccentricity": 0.0001139,
      "inclination_deg": 53.2167,
      "raan_deg": 204.2125,
      "arg_perigee_deg": 84.5186,
      "mean_anomaly_deg": 275.5936,
      "mean_motion_rev_day": 15.08835435
    },
    {
      "epoch": "2026-04-17T16:39:01.439424Z",
      "apogee_km": 540.5779737673365,
      "perigee_km": 538.9207249134897,
      "latitude_deg": 3.6011368734882415e-05,
      "longitude_deg": 103.57787916855729,
      "height_km": 540.5556982821632,
      "semi_major_axis_km": 6917.886349340413,
      "eccentricity": 0.00011978,
      "inclination_deg": 53.2167,
      "raan_deg": 199.1573,
      "arg_perigee_deg": 83.7986,
      "mean_anomaly_deg": 276.3143,
      "mean_motion_rev_day": 15.0883805
    },
    {
      "epoch": "2026-04-18T13:19:02.051040Z",
      "apogee_km": 540.5601907084938,
      "perigee_km": 538.9234205830771,
      "latitude_deg": 9.958668055512719e-06,
      "longitude_deg": 148.86075492880545,
      "height_km": 540.5495403295193,
      "semi_major_axis_km": 6917.878805645785,
      "eccentricity": 0.0001183,
      "inclination_deg": 53.217,
      "raan_deg": 195.2915,
      "arg_perigee_deg": 83.8143,
      "mean_anomaly_deg": 276.2984,
      "mean_motion_rev_day": 15.08840518
    },
    {
      "epoch": "2026-04-19T11:34:25.534272Z",
      "apogee_km": 540.5138552564631,
      "perigee_km": 538.940871257545,
      "latitude_deg": -3.252265027392154e-05,
      "longitude_deg": 169.9355330067589,
      "height_km": 540.6267723706521,
      "semi_major_axis_km": 6917.864363257004,
      "eccentricity": 0.00011369,
      "inclination_deg": 53.2167,
      "raan_deg": 191.1282,
      "arg_perigee_deg": 90.2524,
      "mean_anomaly_deg": 269.8598,
      "mean_motion_rev_day": 15.08845243
    },
    {
      "epoch": "2026-04-20T11:25:13.450368Z",
      "apogee_km": 540.6098537490434,
      "perigee_km": 538.9034860964193,
      "latitude_deg": -1.7609095865704264e-05,
      "longitude_deg": 166.79694514903622,
      "height_km": 540.6051197835931,
      "semi_major_axis_km": 6917.893669922731,
      "eccentricity": 0.00012333,
      "inclination_deg": 53.2169,
      "raan_deg": 186.6686,
      "arg_perigee_deg": 86.8164,
      "mean_anomaly_deg": 273.2969,
      "mean_motion_rev_day": 15.08835655
    },
    {
      "epoch": "2026-04-21T11:15:59.793120Z",
      "apogee_km": 540.6089727038134,
      "perigee_km": 538.8505893254151,
      "latitude_deg": 3.023710771101445e-05,
      "longitude_deg": 163.66345464194515,
      "height_km": 540.5898687162172,
      "semi_major_axis_km": 6917.8667810146135,
      "eccentricity": 0.00012709,
      "inclination_deg": 53.2163,
      "raan_deg": 182.2075,
      "arg_perigee_deg": 87.6778,
      "mean_anomaly_deg": 272.436,
      "mean_motion_rev_day": 15.08844452
    },
    {
      "epoch": "2026-04-22T04:45:14.857632Z",
      "apogee_km": 540.6294254847353,
      "perigee_km": 538.9003650850282,
      "latitude_deg": 5.7047078924253666e-05,
      "longitude_deg": -102.63878293593383,
      "height_km": 540.6436011644922,
      "semi_major_axis_km": 6917.901895284882,
      "eccentricity": 0.00012497,
      "inclination_deg": 53.2167,
      "raan_deg": 178.9362,
      "arg_perigee_deg": 88.8688,
      "mean_anomaly_deg": 271.2448,
      "mean_motion_rev_day": 15.08832964
    },
    {
      "epoch": "2026-04-23T09:22:11.665920Z",
      "apogee_km": 540.597067522679,
      "perigee_km": 538.9196162601784,
      "latitude_deg": 9.429334111846317e-06,
      "longitude_deg": -178.4032305125004,
      "height_km": 540.6140954458508,
      "semi_major_axis_km": 6917.895341891429,
      "eccentricity": 0.00012124,
      "inclination_deg": 53.2168,
      "raan_deg": 173.5837,
      "arg_perigee_deg": 87.2602,
      "mean_anomaly_deg": 272.8529,
      "mean_motion_rev_day": 15.08835108
    },
    {
      "epoch": "2026-04-24T13:59:07.978272Z",
      "apogee_km": 540.5861638286615,
      "perigee_km": 538.9106519828656,
      "latitude_deg": -1.455822595295871e-05,
      "longitude_deg": 105.83441257213937,
      "height_km": 540.5609547855702,
      "semi_major_axis_km": 6917.885407905763,
      "eccentricity": 0.0001211,
      "inclination_deg": 53.2165,
      "raan_deg": 168.2312,
      "arg_perigee_deg": 84.2949,
      "mean_anomaly_deg": 275.8181,
      "mean_motion_rev_day": 15.08838358
    }
  ]
}